[{"OBJECT_NAME":"STARLINK-30972","OBJECT_ID":"2024-002S","EPOCH":"2026-03-09T17:38:59.506944","MEAN_MOTION":15.30196348,"ECCENTRICITY":0.00018792,"INCLINATION":53.1593,"RA_OF_ASC_NODE":229.6261,"ARG_OF_PERICENTER":93.8971,"MEAN_ANOMALY":266.2245,"EPHEMERIS_TYPE":0,"CLASSIFICATION_TYPE":"U","NORAD_CAT_ID":58721,"ELEMENT_SET_NO":999,"REV_AT_EPOCH":12202,"BSTAR":1.1308459e-5,"MEAN_MOTION_DOT":-2.5e-7,"MEAN_MOTION_DDOT":0},{"OBJECT_NAME":"OBJECT A","OBJECT_ID":"2024-203A","EPOCH":"2026-03-09T23:31:20.812800","MEAN_MOTION":15.27300571,"ECCENTRICITY":0.00108989,"INCLINATION":97.4288,"RA_OF_ASC_NODE":139.5608,"ARG_OF_PERICENTER":322.6893,"MEAN_ANOMALY":37.3588,"EPHEMERIS_TYPE":0,"CLASSIFICATION_TYPE":"U","NORAD_CAT_ID":61869,"ELEMENT_SET_NO":999,"REV_AT_EPOCH":7380,"BSTAR":0.00061472876,"MEAN_MOTION_DOT":0.00016411,"MEAN_MOTION_DDOT":0}]
